{
  "type": "FeatureCollection",
  "features": [
    {
      "type": "Feature",
      "properties": {
        "norad_id": 66544,
        "name": "STARLINK-35728",
        "group": "last-30-days",
        "lat": -34.637202074825275,
        "lon": 56.37778285277391,
        "alt_km": 347.1758257151232,
        "timestamp": "2025-12-04T05:42:42.158720+00:00",
        "meta_object_name": "STARLINK-35728",
        "meta_object_id": "2025-265AE",
        "meta_epoch": "2025-12-03T22:00:03.000096",
        "meta_mean_motion": 15.75303747,
        "meta_eccentricity": 0.00017904,
        "meta_inclination": 42.9999,
        "meta_ra_of_asc_node": 106.174,
        "meta_arg_of_pericenter": 262.6294,
        "meta_mean_anomaly": 16.944,
        "meta_ephemeris_type": 0,
        "meta_classification_type": "U",
        "meta_norad_cat_id": 66544,
        "meta_element_set_no": 999,
        "meta_rev_at_epoch": 357,
        "meta_bstar": -0.0051554061,
        "meta_mean_motion_dot": -0.0073545,
        "meta_mean_motion_ddot": 0,
        "tle_line1": "1 66544U 25265AE  25337.91670139 -.00735450  00000+0 -51554-2 0  9998",
        "tle_line2": "2 66544  42.9999 106.1740 0001790 262.6294  16.9440 15.75303747  3577"
      },
      "geometry": {
        "type": "Point",
        "coordinates": [
          56.37778285277391,
          -34.637202074825275
        ]
      }
    },
    {
      "type": "Feature",
      "properties": {
        "norad_id": 66545,
        "name": "SHIJIAN-30A",
        "group": "last-30-days",
        "lat": -46.47615942067054,
        "lon": -43.323043596931726,
        "alt_km": 516.9932291780524,
        "timestamp": "2025-12-04T05:42:42.158730+00:00",
        "meta_object_name": "SHIJIAN-30A",
        "meta_object_id": "2025-266A",
        "meta_epoch": "2025-12-03T18:55:40.522944",
        "meta_mean_motion": 15.15353605,
        "meta_eccentricity": 0.00127786,
        "meta_inclination": 51.7998,
        "meta_ra_of_asc_node": 14.7919,
        "meta_arg_of_pericenter": 324.646,
        "meta_mean_anomaly": 35.3668,
        "meta_ephemeris_type": 0,
        "meta_classification_type": "U",
        "meta_norad_cat_id": 66545,
        "meta_element_set_no": 999,
        "meta_rev_at_epoch": 222,
        "meta_bstar": 0.0010765148,
        "meta_mean_motion_dot": 0.00020346,
        "meta_mean_motion_ddot": 0,
        "tle_line1": "1 66545U 25266A   25337.78866346  .00020346  00000+0  10765-2 0  9990",
        "tle_line2": "2 66545  51.7998  14.7919 0012778 324.6460  35.3668 15.15353605  2229"
      },
      "geometry": {
        "type": "Point",
        "coordinates": [
          -43.323043596931726,
          -46.47615942067054
        ]
      }
    },
    {
      "type": "Feature",
      "properties": {
        "norad_id": 66546,
        "name": "SHIJIAN-30B",
        "group": "last-30-days",
        "lat": -48.53989774143857,
        "lon": -50.35208389747991,
        "alt_km": 518.7983395548408,
        "timestamp": "2025-12-04T05:42:42.158740+00:00",
        "meta_object_name": "SHIJIAN-30B",
        "meta_object_id": "2025-266B",
        "meta_epoch": "2025-12-03T18:57:04.698144",
        "meta_mean_motion": 15.15418807,
        "meta_eccentricity": 0.0010489,
        "meta_inclination": 51.7981,
        "meta_ra_of_asc_node": 14.7962,
        "meta_arg_of_pericenter": 327.632,
        "meta_mean_anomaly": 32.4012,
        "meta_ephemeris_type": 0,
        "meta_classification_type": "U",
        "meta_norad_cat_id": 66546,
        "meta_element_set_no": 999,
        "meta_rev_at_epoch": 222,
        "meta_bstar": 0.001258634,
        "meta_mean_motion_dot": 0.00023882,
        "meta_mean_motion_ddot": 0,
        "tle_line1": "1 66546U 25266B   25337.78963771  .00023882  00000+0  12586-2 0  9992",
        "tle_line2": "2 66546  51.7981  14.7962 0010489 327.6320  32.4012 15.15418807  2222"
      },
      "geometry": {
        "type": "Point",
        "coordinates": [
          -50.35208389747991,
          -48.53989774143857
        ]
      }
    },
    {
      "type": "Feature",
      "properties": {
        "norad_id": 66547,
        "name": "SHIJIAN-30C",
        "group": "last-30-days",
        "lat": -49.82980375261811,
        "lon": -56.17967043498069,
        "alt_km": 517.9732725833901,
        "timestamp": "2025-12-04T05:42:42.158750+00:00",
        "meta_object_name": "SHIJIAN-30C",
        "meta_object_id": "2025-266C",
        "meta_epoch": "2025-12-03T18:58:09.039360",
        "meta_mean_motion": 15.15452594,
        "meta_eccentricity": 0.00113502,
        "meta_inclination": 51.7992,
        "meta_ra_of_asc_node": 14.8019,
        "meta_arg_of_pericenter": 319.8506,
        "meta_mean_anomaly": 40.163,
        "meta_ephemeris_type": 0,
        "meta_classification_type": "U",
        "meta_norad_cat_id": 66547,
        "meta_element_set_no": 999,
        "meta_rev_at_epoch": 222,
        "meta_bstar": 0.0010797943,
        "meta_mean_motion_dot": 0.00020459,
        "meta_mean_motion_ddot": 0,
        "tle_line1": "1 66547U 25266C   25337.79038240  .00020459  00000+0  10798-2 0  9998",
        "tle_line2": "2 66547  51.7992  14.8019 0011350 319.8506  40.1630 15.15452594  2229"
      },
      "geometry": {
        "type": "Point",
        "coordinates": [
          -56.17967043498069,
          -49.82980375261811
        ]
      }
    },
    {
      "type": "Feature",
      "properties": {
        "norad_id": 66548,
        "name": "CZ-2C R/B",
        "group": "last-30-days",
        "lat": -13.722152293474178,
        "lon": 0.7917596933789655,
        "alt_km": 533.5198147544315,
        "timestamp": "2025-12-04T05:42:42.158760+00:00",
        "meta_object_name": "CZ-2C R/B",
        "meta_object_id": "2025-266D",
        "meta_epoch": "2025-12-03T21:57:01.262880",
        "meta_mean_motion": 15.29875267,
        "meta_eccentricity": 0.00846774,
        "meta_inclination": 52.0554,
        "meta_ra_of_asc_node": 13.3161,
        "meta_arg_of_pericenter": 143.0507,
        "meta_mean_anomaly": 217.6353,
        "meta_ephemeris_type": 0,
        "meta_classification_type": "U",
        "meta_norad_cat_id": 66548,
        "meta_element_set_no": 999,
        "meta_rev_at_epoch": 226,
        "meta_bstar": 0.00066182659,
        "meta_mean_motion_dot": 0.00021335,
        "meta_mean_motion_ddot": 0,
        "tle_line1": "1 66548U 25266D   25337.91459795  .00021335  00000+0  66183-3 0  9999",
        "tle_line2": "2 66548  52.0554  13.3161 0084677 143.0507 217.6353 15.29875267  2268"
      },
      "geometry": {
        "type": "Point",
        "coordinates": [
          0.7917596933789655,
          -13.722152293474178
        ]
      }
    },
    {
      "type": "Feature",
      "properties": {
        "norad_id": 66549,
        "name": "SHIJIAN-28",
        "group": "last-30-days",
        "lat": -0.4938146820453947,
        "lon": -87.92406863384036,
        "alt_km": 35520.694998861516,
        "timestamp": "2025-12-04T05:42:42.158772+00:00",
        "meta_object_name": "SHIJIAN-28",
        "meta_object_id": "2025-277A",
        "meta_epoch": "2025-11-30T18:06:43.124256",
        "meta_mean_motion": 2.28019775,
        "meta_eccentricity": 0.7300519,
        "meta_inclination": 14.4344,
        "meta_ra_of_asc_node": 275.4056,
        "meta_arg_of_pericenter": 179.5026,
        "meta_mean_anomaly": 182.358,
        "meta_ephemeris_type": 0,
        "meta_classification_type": "U",
        "meta_norad_cat_id": 66549,
        "meta_element_set_no": 999,
        "meta_rev_at_epoch": 4,
        "meta_bstar": 0.00062085,
        "meta_mean_motion_dot": 6.315e-05,
        "meta_mean_motion_ddot": 0,
        "tle_line1": "1 66549U 25277A   25334.75466579  .00006315  00000+0  62085-3 0  9997",
        "tle_line2": "2 66549  14.4344 275.4056 7300519 179.5026 182.3580  2.28019775    48"
      },
      "geometry": {
        "type": "Point",
        "coordinates": [
          -87.92406863384036,
          -0.4938146820453947
        ]
      }
    },
    {
      "type": "Feature",
      "properties": {
        "norad_id": 66550,
        "name": "CZ-7A R/B",
        "group": "last-30-days",
        "lat": 11.792127908481227,
        "lon": -31.931767421133365,
        "alt_km": 13173.488008077133,
        "timestamp": "2025-12-04T05:42:42.158786+00:00",
        "meta_object_name": "CZ-7A R/B",
        "meta_object_id": "2025-277B",
        "meta_epoch": "2025-12-01T03:57:29.558880",
        "meta_mean_motion": 2.40161271,
        "meta_eccentricity": 0.72362879,
        "meta_inclination": 14.4278,
        "meta_ra_of_asc_node": 275.378,
        "meta_arg_of_pericenter": 178.5774,
        "meta_mean_anomaly": 186.2906,
        "meta_ephemeris_type": 0,
        "meta_classification_type": "U",
        "meta_norad_cat_id": 66550,
        "meta_element_set_no": 999,
        "meta_rev_at_epoch": 5,
        "meta_bstar": 4.4603974e-05,
        "meta_mean_motion_dot": 0.00016399,
        "meta_mean_motion_ddot": -7.1945e-08,
        "tle_line1": "1 66550U 25277B   25335.16492545  .00016399 -71945-7  44604-4 0  9993",
        "tle_line2": "2 66550  14.4278 275.3780 7236287 178.5774 186.2906  2.40161271    57"
      },
      "geometry": {
        "type": "Point",
        "coordinates": [
          -31.931767421133365,
          11.792127908481227
        ]
      }
    }
  ]
}